#dP2024  1 19  0  0  0.00000000      96 __u+U IGS20 FIT  IAC
## 2297 432000.00000000   900.00000000 60328 0.0000000000000
+  119   C06C07C08C09C10C11C12C13C14C16C19C20C21C22C23C24C25
+        C26C27C28C29C30C32C33C34C35C36C37C38C39C40C41C42C43
+        C44C45C46E02E03E04E05E07E08E09E10E11E12E13E14E15E18
+        E19E21E24E25E26E27E30E31E33E34E36G01G02G03G04G05G06
+        G07G08G09G10G11G12G13G14G15G16G17G18G19G20G21G22G23
+        G24G25G26G28G29G30G31G32J02J03J04R01R02R03R04R05R07
+        R08R09R11R12R13R14R15R16R17R18R19R20R21R22R24R25R26
++         9  9  8  9  8  8  9  8  6  9  6  7  4  6  6  5  6
++         5  8  8  7  7  6  6  7  7  7  9  9 10  9  8  6  8
++         7  6  8  7  4  5  7  6  5  6  5  6  7  6  6  5  6
++         6  5  5  7  6  5  6  6  6  6  6  5  6  5  7  6  5
++         6  6  6  6  6  6  6  6  7  8  5  5  5  5  6  6  6
++         6  6  6  6  5  6  5  5  7  0  7  8  7  7  6  6  7
++         6  5  6  7  6  7  6  6  6  5  6  8  5  5  7  6  7
%c M  cc GPS ccc cccc cccc cccc cccc ccccc ccccc ccccc ccccc
%c cc cc ccc ccc cccc cccc cccc cccc ccccc ccccc ccccc ccccc
%f  0.0000000  0.000000000  0.00000000000  0.000000000000000
%f  0.0000000  0.000000000  0.00000000000  0.000000000000000
%i    0    0    0    0      0      0      0      0         0
%i    0    0    0    0      0      0      0      0         0
/* INFORMATION & ANALYSIS CENTER (IAC)      ULTRA-RAPID DATA
/* S/V CLOCKS ARE ALIGNED TO GNSS TIME                      
/* G:C1WC2W R:C1PC2P E:C1XC5X C:C2IC6I J:C1CC2S             
/* PCV:IGS20_2290 OL/AL:FES2004  NONE     YN ORB:CoN CLK:CoN
*  2024 01 19  1  0  0.00000000
PC06  -3108.417177  27091.289847  32264.761654     56.412378
PC07 -16351.707214  31838.503544 -22333.464858   -659.887829
PC08  -7727.761262  40797.827607  -6566.997827    102.766440
PC09   6534.985754  31689.938784  27778.049419   -371.433425
PC10 -10063.678562  31720.844380 -25834.663899    120.529685
PC11 -19748.530864   5652.045793 -18818.617272    365.229145
PC12 -26590.669944  -7851.519652  -3116.449655 999999.999999
PC13  -2443.847146  41945.992536    844.040446    408.884504
PC14 -22256.662975  16655.506002  -2748.083309     -2.974258
PC16  -3439.575019  26444.609181  32991.143903   -289.315750
PC19  17475.038467 -20744.056598  -6493.801027   -936.248522
PC20  23503.257842 -11101.648457  10130.346397    -78.590857
PC21 -15814.187453  -6187.390417 -22132.844165   -963.977382
PC22   1015.615669 -19010.581902 -20397.449782   -142.512986
PC23   4183.422279  27554.382220   1325.353706   -788.849321
PC24 -16308.700045   1575.289653  22567.359480    802.687385
PC25  -7646.577867  21165.874330  16471.533515    305.150310
PC26 -15167.473287 -17515.278808  15556.494937   -236.681048
PC27  24224.566500  12784.074067  -5390.907023    258.722825
PC28  10917.461748  17750.253628 -18553.298992    196.350598
PC29  11361.181537 -12675.840092  22111.831685    230.035807
PC30  25708.969768    171.990327  10878.022484    -16.351459
PC32  15778.614150   6197.350759  22181.052025   -555.452848
PC33 -17397.121712  20863.310555   6425.103844   -943.696628
PC34 -25085.245440    977.132019 -12171.103056 999999.999999
PC35 -11472.738025 -17388.788757  18539.202141    454.083218
PC36   8511.893402 -20527.078971 -16876.760873    -47.451841
PC37  14606.942340  18254.741268 -15215.220935   -932.229473
PC38 -11740.692362  37807.755152 -14234.962459    131.341431
PC39 -10091.675178  22138.294907  34494.401273     -6.700241
PC40 -24234.752386  26307.439456 -22528.188686    -52.669548
PC41  -1699.488791  19419.487237  20026.308833   -880.915319
PC42 -23429.894761   9941.589201 -11428.137056 999999.999999
PC43 -12321.603026  12308.071780 -21806.245390 999999.999999
PC44 -24588.906841 -11944.712176   5510.157681    357.998715
PC45  -4339.520471 -27562.908508  -1023.704717    -64.079996
PC46  16003.253548  -2746.691994 -22709.731144   -116.743518
PE02 -17903.818148    620.669873  23549.371852     96.188671
PE03 -29013.405037   -382.791479  -5875.392779    -87.924892
PE04  23935.736372 -11995.996543 -12621.888984   -306.856529
PE05 -17135.364969 -12382.563580 -20714.270213   4711.654192
PE07  -5330.048413  17235.430935  23471.120033    -99.126278
PE08 -24379.911570  11616.394165  12124.469524   -210.156247
PE09   5470.439599 -17096.455215 -23534.000941   -304.506812
PE10   4950.111717 -17894.211003  23055.363264   -595.206441
PE11  -4265.141944 -23808.578865  17049.427569   3278.422802
PE12  12581.759796 -10010.745794  24857.233473   -868.731234
PE13   3749.384571  23517.113207 -17575.557576    -19.941572
PE14 -21831.573224 -10597.417846  14635.823460     14.468190
PE15 -12875.803207   9486.983359 -24894.274264    -80.940745
PE18   9860.976500  16944.031333 -20792.098952    226.672299
PE19  28421.510496   2039.737789   8032.948817   -785.792639
PE21   8162.712479  18701.399401 -21447.685603   -574.580509
PE24   7208.819456 -28024.364044   6280.038767   -549.715447
PE25  -7873.906523 -19040.413044  21253.363871     -0.324165
PE26  18228.082130  23317.416822    550.444480    343.310126
PE27  -6788.406204  28008.289903  -6725.747323   -252.807352
PE30 -17726.520948  20433.711871  11979.556695   -835.734972
PE31  17569.513514 -20706.095669 -11791.683240    -14.068103
PE33  21788.146246  10413.616641  17126.271261      6.177899
PE34 -21730.489477  -9857.197784 -17515.403544    -89.757415
PE36 -17890.008796 -23574.442782    129.960593   -173.747126
PG01  19410.114896   8769.221708  15740.833839    166.506069
PG02  21309.348865  12898.721847  10062.163771   -498.816655
PG03  14657.059684   2652.080993  21840.821339    135.545598
PG04  25668.109921   2083.798507   6791.599064    269.618625
PG05  -9547.170056 -14583.755353 -20190.501884   -158.483413
PG06  -2039.207681 -20679.140910  16550.574787    439.808709
PG07  14740.510389  -5474.690173 -20976.210031    -40.715937
PG08  21510.589342   6708.509286 -14476.912845   -162.777624
PG09  24923.995802  -7747.528891  -5177.123047     63.327728
PG10 -10598.238064  24122.672048  -1106.173653    -69.872602
PG11 -10764.659420 -23370.707267   6713.331710   -544.933318
PG12 -14766.889654  -3772.506910  21462.849780   -469.269782
PG13 -12785.487805 -13291.973387 -19395.558079    617.206321
PG14  13491.402600 -22257.840839  -4753.207824    302.397654
PG15 -21849.861189  -5034.240455 -14882.420288    118.655654
PG16   3367.131017  19903.635188 -17347.756374   -381.292232
PG17  16367.108942 -12898.005397  16982.556149    719.536904
PG18 -13410.282949   6864.865769 -21869.392015   -535.408530
PG19   6741.299244 -14549.343035  20917.001364    428.472933
PG20  -2263.749654 -24428.270196 -10332.393955    390.857705
PG21  20824.626496  16517.633634   5671.443835    137.950082
PG22   9866.164929 -24622.657874   3633.488212     45.892639
PG23 -15667.025488  16937.496796 -12967.981138    138.125440
PG24 -21129.950152 -14473.660009   7388.655692   -416.391255
PG25 -17094.387357   8933.806418  17803.528477    485.736453
PG26  -1775.626215  25099.697138  -8038.560666    199.015921
PG28    -63.028755  19532.374645  17975.565638   -102.967412
PG29 -25913.194048   4449.933680  -4176.131866   -608.498861
PG30   6635.816919 -15736.699040 -20155.813791   -443.736048
PG31   7177.333265  22752.611953  11020.941561   -227.385974
PG32 -12120.104402  14847.339456  18491.834597   -606.073984
PJ02 -33485.008352  24532.790768  12659.998708     -1.270933
PJ03 -20036.178983  21826.553544 -25370.124018 999999.999999
PJ04 -24854.520395  34276.753070   7372.060270     77.319338
PR01  20709.156797  -4958.104555  14039.932950     74.922276
PR02  21338.415445 -13717.397577  -2968.227516    -22.416490
PR03   9384.190922 -15291.995422 -18113.064908     92.927719
PR04  -7187.087970  -8184.680153 -23033.877853    219.809128
PR05 -20006.894710   3076.050581 -15490.732919 999999.999999
PR07  -8448.854640  15083.045964  18774.348843     73.871235
PR08   7583.014930   8100.308303  23031.053580    -74.085237
PR09  -8718.525333  15177.688563  18601.884235    165.131415
PR11   5901.897038  21910.666708 -11661.654896     37.164507
PR12  10904.473875   4336.109787 -22629.742597     35.759685
PR13   9366.793900 -12779.694591 -20013.789501    -43.438433
PR14   1600.171076 -25109.328788  -4146.221753     25.962064
PR15  -6396.003885 -21051.876935  12915.937069     82.975161
PR16 -10769.512735  -4591.675122  22660.587978     22.565442
PR17  -3117.787188 -13224.476552  21610.125301     53.610064
PR18 -17107.115947 -15712.550864  10500.631327    122.842904
PR19 -22182.615489 -11755.857412  -4509.369645   -262.572202
PR20 -14258.326806   1991.918139 -21029.957118 999999.999999
PR21   3402.993071  13305.289495 -21483.716270    -70.023169
PR22  17296.351372  16236.874710  -9364.936663    103.825637
PR24  13960.840350  -3344.128103  21104.529196    -40.436183
PR25   2468.713943  13599.129740 -21425.506038     46.282447
PR26   6771.096522   8571.687771  23071.211145   -202.798675
EOF
